NORAD_CAT_ID,OBJECT_NAME,OBJECT_TYPE,EPOCH,MEAN_MOTION,ECCENTRICITY,INCLINATION,RA_OF_ASC_NODE,ARG_OF_PERICENTER,MEAN_ANOMALY,BSTAR,MEAN_MOTION_DOT,MEAN_MOTION_DDOT,TLE_LINE0,TLE_LINE1,TLE_LINE2,SEMIMAJOR_AXIS,PERIOD,APOGEE,PERIGEE,DECAYED
53891.0,STARLINK-5041,PAYLOAD,2024-08-13 10:46:09,15.08846595,0.0001533,53.2226,17.5739,105.9799,254.1362,0.00017929,2.567e-05,0.0,0 STARLINK-5041,1 53891U 22119F   24226.44872119  .00002567  00000-0  17929-3 0  9994,2 53891  53.2226  17.5739 0001533 105.9799 254.1362 15.08846595104720,6917.86,95.437,540.786,538.665,0.0
53891.0,STARLINK-5041,PAYLOAD,2024-08-13 17:07:41,15.08850903,0.0001198,53.2128,16.3811,83.4784,276.6344,0.00021573,3.148e-05,0.0,0 STARLINK-5041,1 53891U 22119F   24226.71367956  .00003148  00000-0  21573-3 0  9998,2 53891  53.2128  16.3811 0001198  83.4784 276.6344 15.08850903105188,6917.847,95.437,540.541,538.883,0.0
53891.0,STARLINK-5041,PAYLOAD,2024-08-14 10:36:57,15.08814254,0.0001226,53.213,13.1108,87.0611,273.0521,-0.00066235,-0.00010806,0.0,0 STARLINK-5041,1 53891U 22119F   24227.44233253 -.00010806  00000-0 -66235-3 0  9996,2 53891  53.2130  13.1108 0001226  87.0611 273.0521 15.08814254104878,6917.959,95.439,540.672,538.976,0.0
53891.0,STARLINK-5041,PAYLOAD,2024-08-14 13:47:43,15.08819341,0.0001853,53.2201,12.5191,103.6504,256.4694,-0.00047011,-7.758e-05,0.0,0 STARLINK-5041,1 53891U 22119F   24227.57481302 -.00007758  00000-0 -47011-3 0  9993,2 53891  53.2201  12.5191 0001853 103.6504 256.4694 15.08819341105312,6917.944,95.439,541.09,538.527,0.0
53891.0,STARLINK-5041,PAYLOAD,2024-08-14 16:58:30,15.0882369,0.0001635,53.2186,11.9246,102.0479,258.0697,-0.00034013,-5.695e-05,0.0,0 STARLINK-5041,1 53891U 22119F   24227.70729454 -.00005695  00000-0 -34013-3 0  9997,2 53891  53.2186  11.9246 0001635 102.0479 258.0697 15.08823690104918,6917.93,95.439,540.926,538.664,0.0
53891.0,STARLINK-5041,PAYLOAD,2024-08-16 18:15:28,15.0884594,0.0001254,53.2172,2.7034,80.8499,279.2635,0.00050232,7.717e-05,0.0,0 STARLINK-5041,1 53891U 22119F   24229.76074127  .00007717  00000-0  50232-3 0  9991,2 53891  53.2172   2.7034 0001254  80.8499 279.2635 15.08845940105222,6917.862,95.437,540.595,538.86,0.0
53891.0,STARLINK-5041,PAYLOAD,2024-08-17 08:33:56,15.08839262,0.0001559,53.2196,0.0306,99.8493,260.2675,0.00010416,1.37e-05,0.0,0 STARLINK-5041,1 53891U 22119F   24230.35690277  .00001370  00000-0  10416-3 0  9997,2 53891  53.2196   0.0306 0001559  99.8493 260.2675 15.08839262105317,6917.883,95.438,540.826,538.669,0.0
53891.0,STARLINK-5041,PAYLOAD,2024-08-18 13:10:52,15.08856435,0.0001418,53.2186,354.6762,91.4734,268.6421,0.00039775,6.051e-05,0.0,0 STARLINK-5041,1 53891U 22119F   24231.54921520  .00006051  00000-0  39775-3 0  9997,2 53891  53.2186 354.6762 0001418  91.4734 268.6421 15.08856435105491,6917.83,95.437,540.676,538.714,0.0
53891.0,STARLINK-5041,PAYLOAD,2024-08-18 14:46:15,15.08854099,0.0001552,53.2182,354.3821,74.9924,285.124,0.00044979,6.88e-05,0.0,0 STARLINK-5041,1 53891U 22119F   24231.61545716  .00006880  00000-0  44979-3 0  9996,2 53891  53.2182 354.3821 0001552  74.9924 285.1240 15.08854099105921,6917.837,95.437,540.776,538.629,0.0
53891.0,STARLINK-5041,PAYLOAD,2024-08-19 09:50:53,15.0884227,0.0001443,53.2195,350.8122,95.3997,264.7159,8.2241e-05,1.021e-05,0.0,0 STARLINK-5041,1 53891U 22119F   24232.41033928  .00001021  00000-0  82241-4 0  9999,2 53891  53.2195 350.8122 0001443  95.3997 264.7159 15.08842270105623,6917.873,95.437,540.737,538.74,0.0
53891.0,STARLINK-5041,PAYLOAD,2024-08-20 11:17:03,15.08841414,0.0001532,53.2188,346.0537,107.5736,252.5424,6.7579e-05,7.88e-06,0.0,0 STARLINK-5041,1 53891U 22119F   24233.47017990  .00000788  00000-0  67579-4 0  9993,2 53891  53.2188 346.0537 0001532 107.5736 252.5424 15.08841414105784,6917.876,95.437,540.801,538.681,0.0
53891.0,STARLINK-5041,PAYLOAD,2024-08-20 14:27:49,15.08848672,0.0001628,53.219,345.4587,105.747,254.3702,0.00022158,3.241e-05,0.0,0 STARLINK-5041,1 53891U 22119F   24233.60265745  .00003241  00000-0  22158-3 0  9991,2 53891  53.2190 345.4587 0001628 105.7470 254.3702 15.08848672106228,6917.854,95.437,540.845,538.593,0.0
53891.0,STARLINK-5041,PAYLOAD,2024-08-21 12:43:13,15.08845111,0.0001565,53.219,341.296,103.8259,256.2907,0.00015349,2.156e-05,0.0,0 STARLINK-5041,1 53891U 22119F   24234.53001755  .00002156  00000-0  15349-3 0  9991,2 53891  53.2190 341.2960 0001565 103.8259 256.2907 15.08845111105942,6917.865,95.437,540.812,538.647,0.0
